ONEWEB-0561             
1 56710U 23068A   26079.10779107  .00000020  00000+0  16048-4 0  9998
2 56710  87.9153 292.2306 0001483 103.5320 256.5978 13.20770832137745
ONEWEB-0668             
1 56711U 23068B   26079.20847931  .00000097  00000+0  21895-3 0  9990
2 56711  87.9024 246.4575 0001585  79.0976 281.0333 13.16592716140075
ONEWEB-0676             
1 56712U 23068C   26078.98841410  .00000143  00000+0  34014-3 0  9990
2 56712  87.9011 246.5127 0001450 106.0953 254.0338 13.16595319139966
ONEWEB-0677             
1 56713U 23068D   26079.09673791  .00000095  00000+0  20274-3 0  9998
2 56713  87.9157 292.2253 0001460  85.2875 274.8426 13.20774083138046
ONEWEB-0678             
1 56714U 23068E   26079.24897663  .00000040  00000+0  71356-4 0  9990
2 56714  87.8936 276.9434 0001812  99.4329 260.7006 13.15549158137597
ONEWEB-0679             
1 56715U 23068F   26079.17524345 -.00000005  00000+0 -45882-4 0  9995
2 56715  87.9026 246.4621 0001181  85.3690 274.7576 13.16595109140019
ONEWEB-0680             
1 56716U 23068G   26079.00201496  .00000088  00000+0  18213-3 0  9993
2 56716  87.9174 261.7427 0001475  74.4467 285.6830 13.21828000139315
ONEWEB-0681             
1 56717U 23068H   26079.20853470  .00000097  00000+0  20277-3 0  9994
2 56717  87.9163 261.7087 0001154 130.4919 229.6315 13.21827308139333
ONEWEB-0682             
1 56718U 23068J   26079.27302546 -.00024396  00000+0 -64690-1 0  9990
2 56718  87.8952 276.9435 0002258  73.1577 286.9801 13.15884058137762
ONEWEB-0683             
1 56719U 23068K   26079.06834313  .00000142  00000+0  34425-3 0  9996
2 56719  87.8936 276.9790 0001631  81.9385 278.1930 13.15548637137707
ONEWEB-0684             
1 56720U 23068L   26079.07626920  .00000178  00000+0  43957-3 0  9991
2 56720  87.8936 276.9698 0002981 100.9376 259.2090 13.15548328137532
ONEWEB-0686             
1 56721U 23068M   26079.21164908  .00000121  00000+0  28173-3 0  9992
2 56721  87.9004 246.4916 0001926  88.8176 271.3175 13.16595784140009
ONEWEB-0694             
1 56722U 23068N   26079.21799518  .00000098  00000+0  22165-3 0  9992
2 56722  87.9024 246.4376 0001597  81.2099 278.9213 13.16594731140060
ONEWEB-0696             
1 56723U 23068P   26079.26163538 -.00000046  00000+0 -15506-3 0  9991
2 56723  87.8929 276.9771 0002075 101.4091 258.7272 13.15550501137670
ONEWEB-0703             
1 56724U 23068Q   26078.96692735 -.00000090  00000+0 -27220-3 0  9999
2 56724  87.8928 277.0172 0002084 119.9151 240.2187 13.15548742137527
ONEWEB-0721             
1 56725U 23068R   26079.16451206  .00000023  00000+0  19401-4 0  9996
2 56725  86.6739 113.9433 0001941  96.2559 263.8795 13.22462832146173
