[{"OBJECT_NAME":"ONEWEB-0561","OBJECT_ID":"2023-068A","EPOCH":"2026-03-20T02:35:13.148448","MEAN_MOTION":13.20770832,"ECCENTRICITY":0.00014837,"INCLINATION":87.9153,"RA_OF_ASC_NODE":292.2306,"ARG_OF_PERICENTER":103.532,"MEAN_ANOMALY":256.5978,"EPHEMERIS_TYPE":0,"CLASSIFICATION_TYPE":"U","NORAD_CAT_ID":56710,"ELEMENT_SET_NO":999,"REV_AT_EPOCH":13774,"BSTAR":1.6048377e-5,"MEAN_MOTION_DOT":2.0e-7,"MEAN_MOTION_DDOT":0},{"OBJECT_NAME":"ONEWEB-0668","OBJECT_ID":"2023-068B","EPOCH":"2026-03-20T05:00:12.612384","MEAN_MOTION":13.16592716,"ECCENTRICITY":0.00015853,"INCLINATION":87.9024,"RA_OF_ASC_NODE":246.4575,"ARG_OF_PERICENTER":79.0976,"MEAN_ANOMALY":281.0333,"EPHEMERIS_TYPE":0,"CLASSIFICATION_TYPE":"U","NORAD_CAT_ID":56711,"ELEMENT_SET_NO":999,"REV_AT_EPOCH":14007,"BSTAR":0.00021894759,"MEAN_MOTION_DOT":9.7e-7,"MEAN_MOTION_DDOT":0},{"OBJECT_NAME":"ONEWEB-0676","OBJECT_ID":"2023-068C","EPOCH":"2026-03-19T23:43:18.978240","MEAN_MOTION":13.16595319,"ECCENTRICITY":0.000145,"INCLINATION":87.9011,"RA_OF_ASC_NODE":246.5127,"ARG_OF_PERICENTER":106.0953,"MEAN_ANOMALY":254.0338,"EPHEMERIS_TYPE":0,"CLASSIFICATION_TYPE":"U","NORAD_CAT_ID":56712,"ELEMENT_SET_NO":999,"REV_AT_EPOCH":13996,"BSTAR":0.00034014319,"MEAN_MOTION_DOT":1.43e-6,"MEAN_MOTION_DDOT":0},{"OBJECT_NAME":"ONEWEB-0677","OBJECT_ID":"2023-068D","EPOCH":"2026-03-20T02:19:18.155424","MEAN_MOTION":13.20774083,"ECCENTRICITY":0.00014606,"INCLINATION":87.9157,"RA_OF_ASC_NODE":292.2253,"ARG_OF_PERICENTER":85.2875,"MEAN_ANOMALY":274.8426,"EPHEMERIS_TYPE":0,"CLASSIFICATION_TYPE":"U","NORAD_CAT_ID":56713,"ELEMENT_SET_NO":999,"REV_AT_EPOCH":13804,"BSTAR":0.00020273978,"MEAN_MOTION_DOT":9.5e-7,"MEAN_MOTION_DDOT":0},{"OBJECT_NAME":"ONEWEB-0678","OBJECT_ID":"2023-068E","EPOCH":"2026-03-20T05:58:31.580832","MEAN_MOTION":13.15549158,"ECCENTRICITY":0.00018127,"INCLINATION":87.8936,"RA_OF_ASC_NODE":276.9434,"ARG_OF_PERICENTER":99.4329,"MEAN_ANOMALY":260.7006,"EPHEMERIS_TYPE":0,"CLASSIFICATION_TYPE":"U","NORAD_CAT_ID":56714,"ELEMENT_SET_NO":999,"REV_AT_EPOCH":13759,"BSTAR":7.1356158e-5,"MEAN_MOTION_DOT":4.0e-7,"MEAN_MOTION_DDOT":0},{"OBJECT_NAME":"ONEWEB-0679","OBJECT_ID":"2023-068F","EPOCH":"2026-03-20T04:12:21.034080","MEAN_MOTION":13.16595109,"ECCENTRICITY":0.00011812,"INCLINATION":87.9026,"RA_OF_ASC_NODE":246.4621,"ARG_OF_PERICENTER":85.369,"MEAN_ANOMALY":274.7576,"EPHEMERIS_TYPE":0,"CLASSIFICATION_TYPE":"U","NORAD_CAT_ID":56715,"ELEMENT_SET_NO":999,"REV_AT_EPOCH":14001,"BSTAR":-4.5881942e-5,"MEAN_MOTION_DOT":-5.0e-8,"MEAN_MOTION_DDOT":0},{"OBJECT_NAME":"ONEWEB-0680","OBJECT_ID":"2023-068G","EPOCH":"2026-03-20T00:02:54.092544","MEAN_MOTION":13.21828,"ECCENTRICITY":0.00014755,"INCLINATION":87.9174,"RA_OF_ASC_NODE":261.7427,"ARG_OF_PERICENTER":74.4467,"MEAN_ANOMALY":285.683,"EPHEMERIS_TYPE":0,"CLASSIFICATION_TYPE":"U","NORAD_CAT_ID":56716,"ELEMENT_SET_NO":999,"REV_AT_EPOCH":13931,"BSTAR":0.00018213052,"MEAN_MOTION_DOT":8.8e-7,"MEAN_MOTION_DDOT":0},{"OBJECT_NAME":"ONEWEB-0681","OBJECT_ID":"2023-068H","EPOCH":"2026-03-20T05:00:17.398080","MEAN_MOTION":13.21827308,"ECCENTRICITY":0.00011548,"INCLINATION":87.9163,"RA_OF_ASC_NODE":261.7087,"ARG_OF_PERICENTER":130.4919,"MEAN_ANOMALY":229.6315,"EPHEMERIS_TYPE":0,"CLASSIFICATION_TYPE":"U","NORAD_CAT_ID":56717,"ELEMENT_SET_NO":999,"REV_AT_EPOCH":13933,"BSTAR":0.00020277295,"MEAN_MOTION_DOT":9.7e-7,"MEAN_MOTION_DDOT":0},{"OBJECT_NAME":"ONEWEB-0682","OBJECT_ID":"2023-068J","EPOCH":"2026-03-20T06:33:09.399744","MEAN_MOTION":13.15884058,"ECCENTRICITY":0.00022583,"INCLINATION":87.8952,"RA_OF_ASC_NODE":276.9435,"ARG_OF_PERICENTER":73.1577,"MEAN_ANOMALY":286.9801,"EPHEMERIS_TYPE":0,"CLASSIFICATION_TYPE":"U","NORAD_CAT_ID":56718,"ELEMENT_SET_NO":999,"REV_AT_EPOCH":13776,"BSTAR":-0.064689578,"MEAN_MOTION_DOT":-0.00024396,"MEAN_MOTION_DDOT":0},{"OBJECT_NAME":"ONEWEB-0683","OBJECT_ID":"2023-068K","EPOCH":"2026-03-20T01:38:24.846432","MEAN_MOTION":13.15548637,"ECCENTRICITY":0.00016319,"INCLINATION":87.8936,"RA_OF_ASC_NODE":276.979,"ARG_OF_PERICENTER":81.9385,"MEAN_ANOMALY":278.193,"EPHEMERIS_TYPE":0,"CLASSIFICATION_TYPE":"U","NORAD_CAT_ID":56719,"ELEMENT_SET_NO":999,"REV_AT_EPOCH":13770,"BSTAR":0.00034425271,"MEAN_MOTION_DOT":1.42e-6,"MEAN_MOTION_DDOT":0},{"OBJECT_NAME":"ONEWEB-0684","OBJECT_ID":"2023-068L","EPOCH":"2026-03-20T01:49:49.658880","MEAN_MOTION":13.15548328,"ECCENTRICITY":0.00029813,"INCLINATION":87.8936,"RA_OF_ASC_NODE":276.9698,"ARG_OF_PERICENTER":100.9376,"MEAN_ANOMALY":259.209,"EPHEMERIS_TYPE":0,"CLASSIFICATION_TYPE":"U","NORAD_CAT_ID":56720,"ELEMENT_SET_NO":999,"REV_AT_EPOCH":13753,"BSTAR":0.00043957108,"MEAN_MOTION_DOT":1.78e-6,"MEAN_MOTION_DDOT":0},{"OBJECT_NAME":"ONEWEB-0686","OBJECT_ID":"2023-068M","EPOCH":"2026-03-20T05:04:46.480512","MEAN_MOTION":13.16595784,"ECCENTRICITY":0.00019264,"INCLINATION":87.9004,"RA_OF_ASC_NODE":246.4916,"ARG_OF_PERICENTER":88.8176,"MEAN_ANOMALY":271.3175,"EPHEMERIS_TYPE":0,"CLASSIFICATION_TYPE":"U","NORAD_CAT_ID":56721,"ELEMENT_SET_NO":999,"REV_AT_EPOCH":14000,"BSTAR":0.00028173238,"MEAN_MOTION_DOT":1.21e-6,"MEAN_MOTION_DDOT":0},{"OBJECT_NAME":"ONEWEB-0694","OBJECT_ID":"2023-068N","EPOCH":"2026-03-20T05:13:54.783552","MEAN_MOTION":13.16594731,"ECCENTRICITY":0.00015975,"INCLINATION":87.9024,"RA_OF_ASC_NODE":246.4376,"ARG_OF_PERICENTER":81.2099,"MEAN_ANOMALY":278.9213,"EPHEMERIS_TYPE":0,"CLASSIFICATION_TYPE":"U","NORAD_CAT_ID":56722,"ELEMENT_SET_NO":999,"REV_AT_EPOCH":14006,"BSTAR":0.00022164518,"MEAN_MOTION_DOT":9.8e-7,"MEAN_MOTION_DDOT":0},{"OBJECT_NAME":"ONEWEB-0696","OBJECT_ID":"2023-068P","EPOCH":"2026-03-20T06:16:45.296832","MEAN_MOTION":13.15550501,"ECCENTRICITY":0.0002075,"INCLINATION":87.8929,"RA_OF_ASC_NODE":276.9771,"ARG_OF_PERICENTER":101.4091,"MEAN_ANOMALY":258.7272,"EPHEMERIS_TYPE":0,"CLASSIFICATION_TYPE":"U","NORAD_CAT_ID":56723,"ELEMENT_SET_NO":999,"REV_AT_EPOCH":13767,"BSTAR":-0.00015506107,"MEAN_MOTION_DOT":-4.6e-7,"MEAN_MOTION_DDOT":0},{"OBJECT_NAME":"ONEWEB-0703","OBJECT_ID":"2023-068Q","EPOCH":"2026-03-19T23:12:22.523040","MEAN_MOTION":13.15548742,"ECCENTRICITY":0.00020842,"INCLINATION":87.8928,"RA_OF_ASC_NODE":277.0172,"ARG_OF_PERICENTER":119.9151,"MEAN_ANOMALY":240.2187,"EPHEMERIS_TYPE":0,"CLASSIFICATION_TYPE":"U","NORAD_CAT_ID":56724,"ELEMENT_SET_NO":999,"REV_AT_EPOCH":13752,"BSTAR":-0.00027219733,"MEAN_MOTION_DOT":-9.0e-7,"MEAN_MOTION_DDOT":0},{"OBJECT_NAME":"ONEWEB-0721","OBJECT_ID":"2023-068R","EPOCH":"2026-03-20T03:56:53.841984","MEAN_MOTION":13.22462832,"ECCENTRICITY":0.00019415,"INCLINATION":86.6739,"RA_OF_ASC_NODE":113.9433,"ARG_OF_PERICENTER":96.2559,"MEAN_ANOMALY":263.8795,"EPHEMERIS_TYPE":0,"CLASSIFICATION_TYPE":"U","NORAD_CAT_ID":56725,"ELEMENT_SET_NO":999,"REV_AT_EPOCH":14617,"BSTAR":1.9401457e-5,"MEAN_MOTION_DOT":2.3e-7,"MEAN_MOTION_DDOT":0}]
